start=new Date('2022-08-02T00:00:00.000Z').valueOf();
sats=[{"RCS_SIZE":"LARGE","BSTAR":"-0.00000791670000","FILE":"3527139","TLE_LINE1":"1 46056U 20055AF  22213.84487374 -.00000399  00000-0 -79167-5 0  9996","APOAPSIS":"548.387","SEMIMAJOR_AXIS":"6925.378","ELEMENT_SET_NO":"999","MEAN_MOTION_DDOT":"0.0000000000000","OBJECT_NAME":"STARLINK-1561","EPOCH":"2022-08-01T20:16:37.091136","SITE":"AFETR","GP_ID":"209386951","PERIAPSIS":"546.099","NORAD_CAT_ID":"46056","ECCENTRICITY":"0.00016520","REV_AT_EPOCH":"11071","ARG_OF_PERICENTER":"54.6774","TLE_LINE2":"2 46056  53.0548 263.6692 0001652  54.6774 305.4369 15.06390419110717","OBJECT_ID":"2020-055AF","MEAN_ELEMENT_THEORY":"SGP4","CENTER_NAME":"EARTH","MEAN_MOTION_DOT":"-0.00000399","INCLINATION":"53.0548","EPHEMERIS_TYPE":"0","PERIOD":"95.593","TIME_SYSTEM":"UTC","RA_OF_ASC_NODE":"263.6692","OBJECT_TYPE":"PAYLOAD","REF_FRAME":"TEME","LAUNCH_DATE":"2020-08-07","DECAY_DATE":null,"MEAN_MOTION":"15.06390419","CLASSIFICATION_TYPE":"U","MEAN_ANOMALY":"305.4369","COUNTRY_CODE":"US"},{"CLASSIFICATION_TYPE":"U","COUNTRY_CODE":"US","MEAN_ANOMALY":"276.6083","LAUNCH_DATE":"2020-08-07","REF_FRAME":"TEME","DECAY_DATE":null,"MEAN_MOTION":"15.06399507","TIME_SYSTEM":"UTC","PERIOD":"95.592","RA_OF_ASC_NODE":"263.6166","OBJECT_TYPE":"PAYLOAD","EPHEMERIS_TYPE":"0","MEAN_MOTION_DOT":"0.00000949","INCLINATION":"53.0547","OBJECT_ID":"2020-055AH","CENTER_NAME":"EARTH","MEAN_ELEMENT_THEORY":"SGP4","ARG_OF_PERICENTER":"83.5027","TLE_LINE2":"2 46058  53.0547 263.6166 0001058  83.5027 276.6083 15.06399507110704","REV_AT_EPOCH":"11070","PERIAPSIS":"546.482","NORAD_CAT_ID":"46058","ECCENTRICITY":"0.00010580","OBJECT_NAME":"STARLINK-1564","EPOCH":"2022-08-01T20:33:53.174880","SITE":"AFETR","GP_ID":"209387202","ELEMENT_SET_NO":"999","MEAN_MOTION_DDOT":"0.0000000000000","APOAPSIS":"547.948","SEMIMAJOR_AXIS":"6925.350","RCS_SIZE":"LARGE","BSTAR":"0.00008259200000","TLE_LINE1":"1 46058U 20055AH  22213.85686545  .00000949  00000-0  82592-4 0  9994","FILE":"3527139"},{"REV_AT_EPOCH":"11011","PERIAPSIS":"546.276","ECCENTRICITY":"0.00013620","NORAD_CAT_ID":"46059","EPOCH":"2022-08-01T11:11:16.889280","OBJECT_NAME":"STARLINK-1570","SITE":"AFETR","GP_ID":"209307608","ELEMENT_SET_NO":"999","MEAN_MOTION_DDOT":"0.0000000000000","SEMIMAJOR_AXIS":"6925.354","APOAPSIS":"548.162","BSTAR":"0.00003397000000","RCS_SIZE":"LARGE","FILE":"3526772","TLE_LINE1":"1 46059U 20055AJ  22213.46616770  .00000225  00000-0  33970-4 0  9998","CLASSIFICATION_TYPE":"U","COUNTRY_CODE":"US","MEAN_ANOMALY":"277.1131","DECAY_DATE":null,"MEAN_MOTION":"15.06398234","REF_FRAME":"TEME","LAUNCH_DATE":"2020-08-07","PERIOD":"95.592","TIME_SYSTEM":"UTC","RA_OF_ASC_NODE":"265.3844","OBJECT_TYPE":"PAYLOAD","EPHEMERIS_TYPE":"0","MEAN_MOTION_DOT":"0.00000225","INCLINATION":"53.0540","CENTER_NAME":"EARTH","MEAN_ELEMENT_THEORY":"SGP4","OBJECT_ID":"2020-055AJ","ARG_OF_PERICENTER":"83.0013","TLE_LINE2":"2 46059  53.0540 265.3844 0001362  83.0013 277.1131 15.06398234110119"},{"CENTER_NAME":"EARTH","MEAN_ELEMENT_THEORY":"SGP4","OBJECT_ID":"2020-055AK","INCLINATION":"53.0547","MEAN_MOTION_DOT":"0.00001197","TLE_LINE2":"2 46060  53.0547 263.6114 0001419  73.8313 286.2832 15.06391854110673","ARG_OF_PERICENTER":"73.8313","MEAN_MOTION":"15.06391854","DECAY_DATE":null,"LAUNCH_DATE":"2020-08-07","REF_FRAME":"TEME","COUNTRY_CODE":"US","MEAN_ANOMALY":"286.2832","CLASSIFICATION_TYPE":"U","EPHEMERIS_TYPE":"0","OBJECT_TYPE":"PAYLOAD","RA_OF_ASC_NODE":"263.6114","TIME_SYSTEM":"UTC","PERIOD":"95.593","SEMIMAJOR_AXIS":"6925.374","APOAPSIS":"548.221","FILE":"3527139","TLE_LINE1":"1 46060U 20055AK  22213.86057123  .00001197  00000-0  99270-4 0  9999","BSTAR":"0.00009927000000","RCS_SIZE":"LARGE","ECCENTRICITY":"0.00014190","NORAD_CAT_ID":"46060","PERIAPSIS":"546.256","REV_AT_EPOCH":"11067","ELEMENT_SET_NO":"999","MEAN_MOTION_DDOT":"0.0000000000000","SITE":"AFETR","GP_ID":"209386201","EPOCH":"2022-08-01T20:39:13.354272","OBJECT_NAME":"STARLINK-1572"},{"REV_AT_EPOCH":"11070","ECCENTRICITY":"0.00014500","NORAD_CAT_ID":"46061","PERIAPSIS":"546.222","GP_ID":"209386452","SITE":"AFETR","EPOCH":"2022-08-01T20:28:35.679936","OBJECT_NAME":"STARLINK-1573","ELEMENT_SET_NO":"999","MEAN_MOTION_DDOT":"0.0000000000000","SEMIMAJOR_AXIS":"6925.361","APOAPSIS":"548.230","FILE":"3527139","TLE_LINE1":"1 46061U 20055AL  22213.85319074 -.00000445  00000-0 -10984-4 0  9997","BSTAR":"-0.00001098400000","RCS_SIZE":"LARGE","MEAN_ANOMALY":"296.4426","COUNTRY_CODE":"US","CLASSIFICATION_TYPE":"U","MEAN_MOTION":"15.06395889","DECAY_DATE":null,"LAUNCH_DATE":"2020-08-07","REF_FRAME":"TEME","OBJECT_TYPE":"PAYLOAD","RA_OF_ASC_NODE":"263.6474","TIME_SYSTEM":"UTC","PERIOD":"95.592","EPHEMERIS_TYPE":"0","INCLINATION":"53.0544","MEAN_MOTION_DOT":"-0.00000445","MEAN_ELEMENT_THEORY":"SGP4","CENTER_NAME":"EARTH","OBJECT_ID":"2020-055AL","TLE_LINE2":"2 46061  53.0544 263.6474 0001450  63.6712 296.4426 15.06395889110703","ARG_OF_PERICENTER":"63.6712"},{"INCLINATION":"53.0536","MEAN_MOTION_DOT":"0.00000045","CENTER_NAME":"EARTH","MEAN_ELEMENT_THEORY":"SGP4","OBJECT_ID":"2020-055AM","TLE_LINE2":"2 46062  53.0536 265.5694 0001638  63.7893 296.3265 15.06397241110602","ARG_OF_PERICENTER":"63.7893","MEAN_ANOMALY":"296.3265","COUNTRY_CODE":"US","CLASSIFICATION_TYPE":"U","MEAN_MOTION":"15.06397241","DECAY_DATE":null,"REF_FRAME":"TEME","LAUNCH_DATE":"2020-08-07","RA_OF_ASC_NODE":"265.5694","OBJECT_TYPE":"PAYLOAD","TIME_SYSTEM":"UTC","PERIOD":"95.592","EPHEMERIS_TYPE":"0","SEMIMAJOR_AXIS":"6925.357","APOAPSIS":"548.356","TLE_LINE1":"1 46062U 20055AM  22213.42193419  .00000045  00000-0  21906-4 0  9994","FILE":"3526929","BSTAR":"0.00002190600000","RCS_SIZE":"LARGE","REV_AT_EPOCH":"11060","ECCENTRICITY":"0.00016380","NORAD_CAT_ID":"46062","PERIAPSIS":"546.088","SITE":"AFETR","GP_ID":"209330534","OBJECT_NAME":"STARLINK-1574","EPOCH":"2022-08-01T10:07:35.114016","ELEMENT_SET_NO":"999","MEAN_MOTION_DDOT":"0.0000000000000"},{"EPHEMERIS_TYPE":"0","PERIOD":"95.593","TIME_SYSTEM":"UTC","OBJECT_TYPE":"PAYLOAD","RA_OF_ASC_NODE":"265.6029","MEAN_MOTION":"15.06393649","DECAY_DATE":null,"REF_FRAME":"TEME","LAUNCH_DATE":"2020-08-07","CLASSIFICATION_TYPE":"U","COUNTRY_CODE":"US","MEAN_ANOMALY":"272.1147","ARG_OF_PERICENTER":"88.0001","TLE_LINE2":"2 46063  53.0538 265.6029 0001389  88.0001 272.1147 15.06393649110634","MEAN_ELEMENT_THEORY":"SGP4","CENTER_NAME":"EARTH","OBJECT_ID":"2020-055AN","MEAN_MOTION_DOT":"-0.00000723","INCLINATION":"53.0538","ELEMENT_SET_NO":"999","MEAN_MOTION_DDOT":"0.0000000000000","EPOCH":"2022-08-01T10:02:16.627200","OBJECT_NAME":"STARLINK-1577","SITE":"AFETR","GP_ID":"209331283","PERIAPSIS":"546.271","ECCENTRICITY":"0.00013890","NORAD_CAT_ID":"46063","REV_AT_EPOCH":"11063","BSTAR":"-0.00002963800000","RCS_SIZE":"LARGE","FILE":"3526929","TLE_LINE1":"1 46063U 20055AN  22213.41824800 -.00000723  00000-0 -29638-4 0  9994","SEMIMAJOR_AXIS":"6925.368","APOAPSIS":"548.195"},{"EPHEMERIS_TYPE":"0","TIME_SYSTEM":"UTC","PERIOD":"95.592","OBJECT_TYPE":"PAYLOAD","RA_OF_ASC_NODE":"263.6584","MEAN_MOTION":"15.06396225","DECAY_DATE":null,"LAUNCH_DATE":"2020-08-07","REF_FRAME":"TEME","CLASSIFICATION_TYPE":"U","MEAN_ANOMALY":"292.9238","COUNTRY_CODE":"US","ARG_OF_PERICENTER":"67.1901","TLE_LINE2":"2 46064  53.0539 263.6584 0001415  67.1901 292.9238 15.06396225110709","CENTER_NAME":"EARTH","MEAN_ELEMENT_THEORY":"SGP4","OBJECT_ID":"2020-055AP","MEAN_MOTION_DOT":"0.00001155","INCLINATION":"53.0539","MEAN_MOTION_DDOT":"0.0000000000000","ELEMENT_SET_NO":"999","EPOCH":"2022-08-01T20:23:16.890720","OBJECT_NAME":"STARLINK-1583","GP_ID":"209386701","SITE":"AFETR","PERIAPSIS":"546.245","ECCENTRICITY":"0.00014150","NORAD_CAT_ID":"46064","REV_AT_EPOCH":"11070","BSTAR":"0.00009640500000","RCS_SIZE":"LARGE","FILE":"3527139","TLE_LINE1":"1 46064U 20055AP  22213.84950105  .00001155  00000-0  96405-4 0  9994","SEMIMAJOR_AXIS":"6925.360","APOAPSIS":"548.205"},{"SEMIMAJOR_AXIS":"6925.364","APOAPSIS":"548.217","BSTAR":"-0.00002796600000","RCS_SIZE":"LARGE","FILE":"3527139","TLE_LINE1":"1 46065U 20055AQ  22213.90937436 -.00000698  00000-0 -27966-4 0  9993","PERIAPSIS":"546.242","ECCENTRICITY":"0.00014260","NORAD_CAT_ID":"46065","REV_AT_EPOCH":"11097","ELEMENT_SET_NO":"999","MEAN_MOTION_DDOT":"0.0000000000000","OBJECT_NAME":"STARLINK-1515","EPOCH":"2022-08-01T21:49:29.944704","GP_ID":"209386952","SITE":"AFETR","CENTER_NAME":"EARTH","MEAN_ELEMENT_THEORY":"SGP4","OBJECT_ID":"2020-055AQ","MEAN_MOTION_DOT":"-0.00000698","INCLINATION":"53.0540","ARG_OF_PERICENTER":"68.3893","TLE_LINE2":"2 46065  53.0540 243.3898 0001426  68.3893 291.7248 15.06394880110972","MEAN_MOTION":"15.06394880","DECAY_DATE":null,"REF_FRAME":"TEME","LAUNCH_DATE":"2020-08-07","CLASSIFICATION_TYPE":"U","MEAN_ANOMALY":"291.7248","COUNTRY_CODE":"US","EPHEMERIS_TYPE":"0","TIME_SYSTEM":"UTC","PERIOD":"95.592","OBJECT_TYPE":"PAYLOAD","RA_OF_ASC_NODE":"243.3898"},{"RCS_SIZE":"LARGE","BSTAR":"-0.00001362300000","FILE":"3527007","TLE_LINE1":"1 46066U 20055AR  22213.78131601 -.00000484  00000-0 -13623-4 0  9998","APOAPSIS":"548.287","SEMIMAJOR_AXIS":"6925.357","OBJECT_NAME":"STARLINK-1525","EPOCH":"2022-08-01T18:45:05.703264","GP_ID":"209364213","SITE":"AFETR","ELEMENT_SET_NO":"999","MEAN_MOTION_DDOT":"0.0000000000000","REV_AT_EPOCH":"11043","PERIAPSIS":"546.157","NORAD_CAT_ID":"46066","ECCENTRICITY":"0.00015380","ARG_OF_PERICENTER":"64.4669","TLE_LINE2":"2 46066  53.0543 243.9743 0001538  64.4669 295.6479 15.06397263110431","MEAN_MOTION_DOT":"-0.00000484","INCLINATION":"53.0543","OBJECT_ID":"2020-055AR","CENTER_NAME":"EARTH","MEAN_ELEMENT_THEORY":"SGP4","TIME_SYSTEM":"UTC","PERIOD":"95.592","RA_OF_ASC_NODE":"243.9743","OBJECT_TYPE":"PAYLOAD","EPHEMERIS_TYPE":"0","CLASSIFICATION_TYPE":"U","COUNTRY_CODE":"US","MEAN_ANOMALY":"295.6479","LAUNCH_DATE":"2020-08-07","REF_FRAME":"TEME","MEAN_MOTION":"15.06397263","DECAY_DATE":null}];
